{"type": "FeatureCollection", "features": [ {"type": "Feature", "properties": {"norad_id": 31673, "name": "FENGYUN 1C DEB", "group": "fengyun-1c-debris", "lat": 32.79328084847875, "lon": 178.06872850106106, "alt_km": 693.9627406437667, "timestamp": "2025-12-15T11:38:37.437335+00:00", "meta": {"OBJECT_NAME": "FENGYUN 1C DEB", "OBJECT_ID": "1999-025CCF", "EPOCH": "2025-12-14T12:00:53.224128", "MEAN_MOTION": 14.31944997, "ECCENTRICITY": 0.01256433, "INCLINATION": 99.3751, "RA_OF_ASC_NODE": 183.1159, "ARG_OF_PERICENTER": 43.9322, "MEAN_ANOMALY": 317.1765, "EPHEMERIS_TYPE": 0, "CLASSIFICATION_TYPE": "U", "NORAD_CAT_ID": 31673, "ELEMENT_SET_NO": 999, "REV_AT_EPOCH": 64916, "BSTAR": 0.00026068423, "MEAN_MOTION_DOT": 7.1e-06, "MEAN_MOTION_DDOT": 0}, "tle": {"line1": "1 31673U 99025CCF 25348.50061602  .00000710  00000+0  26068-3 0  9999", "line2": "2 31673  99.3751 183.1159 0125643  43.9322 317.1765 14.31944997649165"}}, "geometry": {"type": "Point", "coordinates": [178.06872850106106, 32.79328084847875]}}, {"type": "Feature", "properties": {"norad_id": 31674, "name": "FENGYUN 1C DEB", "group": "fengyun-1c-debris", "lat": -1.2456312025613276, "lon": 26.16221058628981, "alt_km": 719.9238547314308, "timestamp": "2025-12-15T11:38:37.437345+00:00", "meta": {"OBJECT_NAME": "FENGYUN 1C DEB", "OBJECT_ID": "1999-025CCG", "EPOCH": "2025-12-13T08:22:41.288736", "MEAN_MOTION": 14.51898371, "ECCENTRICITY": 0.00245296, "INCLINATION": 98.9271, "RA_OF_ASC_NODE": 23.6977, "ARG_OF_PERICENTER": 283.0271, "MEAN_ANOMALY": 76.8184, "EPHEMERIS_TYPE": 0, "CLASSIFICATION_TYPE": "U", "NORAD_CAT_ID": 31674, "ELEMENT_SET_NO": 999, "REV_AT_EPOCH": 64623, "BSTAR": 0.0046279629, "MEAN_MOTION_DOT": 0.00018727, "MEAN_MOTION_DDOT": 0}, "tle": {"line1": "1 31674U 99025CCG 25347.34908899  .00018727  00000+0  46280-2 0  9993", "line2": "2 31674  98.9271  23.6977 0024529 283.0271  76.8184 14.51898371646230"}}, "geometry": {"type": "Point", "coordinates": [26.16221058628981, -1.2456312025613276]}}, {"type": "Feature", "properties": {"norad_id": 31678, "name": "FENGYUN 1C DEB", "group": "fengyun-1c-debris", "lat": -32.12555409482441, "lon": 104.38354587239334, "alt_km": 605.1657326955292, "timestamp": "2025-12-15T11:38:37.437355+00:00", "meta": {"OBJECT_NAME": "FENGYUN 1C DEB", "OBJECT_ID": "1999-025CCL", "EPOCH": "2025-12-13T13:31:08.844384", "MEAN_MOTION": 14.53199849, "ECCENTRICITY": 0.02590257, "INCLINATION": 98.7988, "RA_OF_ASC_NODE": 96.7834, "ARG_OF_PERICENTER": 25.3815, "MEAN_ANOMALY": 335.9844, "EPHEMERIS_TYPE": 0, "CLASSIFICATION_TYPE": "U", "NORAD_CAT_ID": 31678, "ELEMENT_SET_NO": 999, "REV_AT_EPOCH": 96851, "BSTAR": 0.0010475953, "MEAN_MOTION_DOT": 6.72e-05, "MEAN_MOTION_DDOT": 0}, "tle": {"line1": "1 31678U 99025CCL 25347.56329681  .00006720  00000+0  10476-2 0  9995", "line2": "2 31678  98.7988  96.7834 0259025  25.3815 335.9844 14.53199849968518"}}, "geometry": {"type": "Point", "coordinates": [104.38354587239334, -32.12555409482441]}}, {"type": "Feature", "properties": {"norad_id": 31680, "name": "FENGYUN 1C DEB", "group": "fengyun-1c-debris", "lat": -70.45504086649365, "lon": -111.40239285184522, "alt_km": 454.4941356207455, "timestamp": "2025-12-15T11:38:37.437365+00:00", "meta": {"OBJECT_NAME": "FENGYUN 1C DEB", "OBJECT_ID": "1999-025CCN", "EPOCH": "2025-12-14T03:01:19.773984", "MEAN_MOTION": 15.24213704, "ECCENTRICITY": 0.00751957, "INCLINATION": 99.8358, "RA_OF_ASC_NODE": 96.0737, "ARG_OF_PERICENTER": 285.5725, "MEAN_ANOMALY": 73.7213, "EPHEMERIS_TYPE": 0, "CLASSIFICATION_TYPE": "U", "NORAD_CAT_ID": 31680, "ELEMENT_SET_NO": 999, "REV_AT_EPOCH": 193, "BSTAR": 0.0012487948, "MEAN_MOTION_DOT": 0.00032988, "MEAN_MOTION_DDOT": 0}, "tle": {"line1": "1 31680U 99025CCN 25348.12592331  .00032988  00000+0  12488-2 0  9995", "line2": "2 31680  99.8358  96.0737 0075195 285.5725  73.7213 15.24213704  1930"}}, "geometry": {"type": "Point", "coordinates": [-111.40239285184522, -70.45504086649365]}}, {"type": "Feature", "properties": {"norad_id": 31685, "name": "FENGYUN 1C DEB", "group": "fengyun-1c-debris", "lat": 13.294078550677188, "lon": 11.542096525703577, "alt_km": 872.0587729325571, "timestamp": "2025-12-15T11:38:37.437374+00:00", "meta": {"OBJECT_NAME": "FENGYUN 1C DEB", "OBJECT_ID": "1999-025CCT", "EPOCH": "2025-12-13T08:28:30.695520", "MEAN_MOTION": 14.09658679, "ECCENTRICITY": 0.00159201, "INCLINATION": 98.7311, "RA_OF_ASC_NODE": 11.5554, "ARG_OF_PERICENTER": 223.8569, "MEAN_ANOMALY": 136.1339, "EPHEMERIS_TYPE": 0, "CLASSIFICATION_TYPE": "U", "NORAD_CAT_ID": 31685, "ELEMENT_SET_NO": 999, "REV_AT_EPOCH": 95098, "BSTAR": 0.0001912622, "MEAN_MOTION_DOT": 2.93e-06, "MEAN_MOTION_DDOT": 0}, "tle": {"line1": "1 31685U 99025CCT 25347.35313305  .00000293  00000+0  19126-3 0  9997", "line2": "2 31685  98.7311  11.5554 0015920 223.8569 136.1339 14.09658679950989"}}, "geometry": {"type": "Point", "coordinates": [11.542096525703577, 13.294078550677188]}}, {"type": "Feature", "properties": {"norad_id": 31686, "name": "FENGYUN 1C DEB", "group": "fengyun-1c-debris", "lat": 34.76099527243759, "lon": 55.37432952171394, "alt_km": 509.1690852532065, "timestamp": "2025-12-15T11:38:37.437385+00:00", "meta": {"OBJECT_NAME": "FENGYUN 1C DEB", "OBJECT_ID": "1999-025CCU", "EPOCH": "2025-12-10T10:46:20.455104", "MEAN_MOTION": 14.72037597, "ECCENTRICITY": 0.02837956, "INCLINATION": 98.1518, "RA_OF_ASC_NODE": 56.0281, "ARG_OF_PERICENTER": 96.7417, "MEAN_ANOMALY": 266.6169, "EPHEMERIS_TYPE": 0, "CLASSIFICATION_TYPE": "U", "NORAD_CAT_ID": 31686, "ELEMENT_SET_NO": 999, "REV_AT_EPOCH": 97785, "BSTAR": 0.0010577833, "MEAN_MOTION_DOT": 0.00012579, "MEAN_MOTION_DDOT": 0}, "tle": {"line1": "1 31686U 99025CCU 25344.44884786  .00012579  00000+0  10578-2 0  9992", "line2": "2 31686  98.1518  56.0281 0283795  96.7417 266.6169 14.72037597977855"}}, "geometry": {"type": "Point", "coordinates": [55.37432952171394, 34.76099527243759]}}, {"type": "Feature", "properties": {"norad_id": 31688, "name": "FENGYUN 1C DEB", "group": "fengyun-1c-debris", "lat": 64.4404465274998, "lon": 24.24283555938056, "alt_km": 858.1421581368104, "timestamp": "2025-12-15T11:38:37.437395+00:00", "meta": {"OBJECT_NAME": "FENGYUN 1C DEB", "OBJECT_ID": "1999-025CCW", "EPOCH": "2025-12-13T09:40:10.991136", "MEAN_MOTION": 14.02316125, "ECCENTRICITY": 0.00755322, "INCLINATION": 98.9648, "RA_OF_ASC_NODE": 41.4674, "ARG_OF_PERICENTER": 139.3335, "MEAN_ANOMALY": 221.3505, "EPHEMERIS_TYPE": 0, "CLASSIFICATION_TYPE": "U", "NORAD_CAT_ID": 31688, "ELEMENT_SET_NO": 999, "REV_AT_EPOCH": 95287, "BSTAR": 2.2550731e-05, "MEAN_MOTION_DOT": -8e-08, "MEAN_MOTION_DDOT": 0}, "tle": {"line1": "1 31688U 99025CCW 25347.40290499 -.00000008  00000+0  22551-4 0  9996", "line2": "2 31688  98.9648  41.4674 0075532 139.3335 221.3505 14.02316125952871"}}, "geometry": {"type": "Point", "coordinates": [24.24283555938056, 64.4404465274998]}}, {"type": "Feature", "properties": {"norad_id": 31691, "name": "FENGYUN 1C DEB", "group": "fengyun-1c-debris", "lat": 50.961647508005214, "lon": -92.92928537551543, "alt_km": 809.4172774423023, "timestamp": "2025-12-15T11:38:37.437405+00:00", "meta": {"OBJECT_NAME": "FENGYUN 1C DEB", "OBJECT_ID": "1999-025CCZ", "EPOCH": "2025-12-12T12:19:12.535392", "MEAN_MOTION": 14.26139263, "ECCENTRICITY": 0.00611137, "INCLINATION": 98.881, "RA_OF_ASC_NODE": 72.9414, "ARG_OF_PERICENTER": 239.7634, "MEAN_ANOMALY": 119.7486, "EPHEMERIS_TYPE": 0, "CLASSIFICATION_TYPE": "U", "NORAD_CAT_ID": 31691, "ELEMENT_SET_NO": 999, "REV_AT_EPOCH": 64108, "BSTAR": 0.0035356607, "MEAN_MOTION_DOT": 8.591e-05, "MEAN_MOTION_DDOT": 0}, "tle": {"line1": "1 31691U 99025CCZ 25346.51333953  .00008591  00000+0  35357-2 0  9994", "line2": "2 31691  98.8810  72.9414 0061113 239.7634 119.7486 14.26139263641081"}}, "geometry": {"type": "Point", "coordinates": [-92.92928537551543, 50.961647508005214]}}, {"type": "Feature", "properties": {"norad_id": 31692, "name": "FENGYUN 1C DEB", "group": "fengyun-1c-debris", "lat": -24.86073553245023, "lon": -9.641529574384538, "alt_km": 845.7640745264753, "timestamp": "2025-12-15T11:38:37.437415+00:00", "meta": {"OBJECT_NAME": "FENGYUN 1C DEB", "OBJECT_ID": "1999-025CDA", "EPOCH": "2025-12-13T19:07:47.653248", "MEAN_MOTION": 14.1836456, "ECCENTRICITY": 0.00879373, "INCLINATION": 99.1765, "RA_OF_ASC_NODE": 344.318, "ARG_OF_PERICENTER": 78.7556, "MEAN_ANOMALY": 282.3486, "EPHEMERIS_TYPE": 0, "CLASSIFICATION_TYPE": "U", "NORAD_CAT_ID": 31692, "ELEMENT_SET_NO": 999, "REV_AT_EPOCH": 58224, "BSTAR": 0.0032581742, "MEAN_MOTION_DOT": 6.94e-05, "MEAN_MOTION_DDOT": 0}, "tle": {"line1": "1 31692U 99025CDA 25347.79707932  .00006940  00000+0  32582-2 0  9991", "line2": "2 31692  99.1765 344.3180 0087937  78.7556 282.3486 14.18364560582247"}}, "geometry": {"type": "Point", "coordinates": [-9.641529574384538, -24.86073553245023]}}, {"type": "Feature", "properties": {"norad_id": 31695, "name": "FENGYUN 1C DEB", "group": "fengyun-1c-debris", "lat": -63.271836959866214, "lon": 90.62920790653301, "alt_km": 623.9900503564231, "timestamp": "2025-12-15T11:38:37.437425+00:00", "meta": {"OBJECT_NAME": "FENGYUN 1C DEB", "OBJECT_ID": "1999-025CDD", "EPOCH": "2025-12-13T01:16:33.048192", "MEAN_MOTION": 14.73674831, "ECCENTRICITY": 0.01749266, "INCLINATION": 98.2645, "RA_OF_ASC_NODE": 71.374, "ARG_OF_PERICENTER": 227.5467, "MEAN_ANOMALY": 131.084, "EPHEMERIS_TYPE": 0, "CLASSIFICATION_TYPE": "U", "NORAD_CAT_ID": 31695, "ELEMENT_SET_NO": 999, "REV_AT_EPOCH": 65976, "BSTAR": 0.0025136227, "MEAN_MOTION_DOT": 0.0002095, "MEAN_MOTION_DDOT": 0}, "tle": {"line1": "1 31695U 99025CDD 25347.05316028  .00020950  00000+0  25136-2 0  9999", "line2": "2 31695  98.2645  71.3740 0174926 227.5467 131.0840 14.73674831659768"}}, "geometry": {"type": "Point", "coordinates": [90.62920790653301, -63.271836959866214]}}]}